[{"OBJECT_NAME":"STARLINK-30600","OBJECT_ID":"2023-161D","EPOCH":"2026-03-09T13:48:53.294112","MEAN_MOTION":15.30187522,"ECCENTRICITY":0.0001272,"INCLINATION":53.1609,"RA_OF_ASC_NODE":166.0889,"ARG_OF_PERICENTER":107.9519,"MEAN_ANOMALY":252.1621,"EPHEMERIS_TYPE":0,"CLASSIFICATION_TYPE":"U","NORAD_CAT_ID":58100,"ELEMENT_SET_NO":999,"REV_AT_EPOCH":13440,"BSTAR":1.1243e-5,"MEAN_MOTION_DOT":-2.6e-7,"MEAN_MOTION_DDOT":0},{"OBJECT_NAME":"JINJUSAT-1B","OBJECT_ID":"2025-052A","EPOCH":"2026-03-09T15:55:38.242848","MEAN_MOTION":15.30194857,"ECCENTRICITY":0.00055504,"INCLINATION":97.4113,"RA_OF_ASC_NODE":325.4613,"ARG_OF_PERICENTER":82.193,"MEAN_ANOMALY":277.9941,"EPHEMERIS_TYPE":0,"CLASSIFICATION_TYPE":"U","NORAD_CAT_ID":63210,"ELEMENT_SET_NO":999,"REV_AT_EPOCH":5486,"BSTAR":0.00068430401,"MEAN_MOTION_DOT":0.00019955,"MEAN_MOTION_DDOT":0}]
